sat12731
1 12731U 81053BY  20046.74906753  .00000133  00000-0  11587-3 0  9996
2 12731  82.9397 152.3156 0084981 202.8761 312.2307 13.77450097932435
